     2              NAVIGATION DATA                         RINEX VERSION / TYPE
CCRINEXN V1.6.0 UX  CDDIS               22-DEC-16 17:31     PGM / RUN BY / DATE 
IGS BROADCAST EPHEMERIS FILE                                COMMENT             
    0.8382D-08 -0.1490D-07 -0.5960D-07  0.1192D-06          ION ALPHA           
    0.9421D+05 -0.1311D+06 -0.1311D+06  0.8520D+06          ION BETA            
    0.279396772385D-08 0.976996261670D-14   405504     1928 DELTA-UTC: A0,A1,T,W
    17                                                      LEAP SECONDS        
                                                            END OF HEADER       
 1 16 12 21  0  0  0.0 0.442848540842D-04 0.125055521494D-11 0.000000000000D+00
    0.690000000000D+02-0.505000000000D+02 0.441839832974D-08 0.308272610574D+01
   -0.260397791862D-05 0.607593264431D-02 0.615790486336D-05 0.515369593811D+04
    0.259200000000D+06-0.316649675369D-07 0.365036346806D+00-0.745058059692D-07
    0.966280003681D+00 0.263468750000D+03 0.558168679177D+00-0.801354808216D-08
    0.107147320259D-10 0.100000000000D+01 0.192800000000D+04 0.000000000000D+00
    0.200000000000D+01 0.000000000000D+00 0.512227416039D-08 0.690000000000D+02
    0.259110000000D+06 0.400000000000D+01 0.000000000000D+00 0.000000000000D+00
 3 16 12 21  0  0  0.0-0.103414990008D-03-0.136424205266D-11 0.000000000000D+00
    0.100000000000D+03-0.173750000000D+02 0.445982862691D-08 0.173764884121D+01
   -0.944361090660D-06 0.411192653701D-03 0.961311161518D-05 0.515355735397D+04
    0.259200000000D+06 0.149011611938D-07 0.140696333234D+01 0.111758708954D-07
    0.959171617439D+00 0.190718750000D+03 0.845522667184D+00-0.795211695188D-08
    0.235724104569D-10 0.100000000000D+01 0.192800000000D+04 0.000000000000D+00
    0.400000000000D+01 0.000000000000D+00 0.186264514923D-08 0.100000000000D+03
    0.258270000000D+06 0.400000000000D+01 0.000000000000D+00 0.000000000000D+00
 4 16 12 21  0  0  0.0 0.102818012238D-04-0.118234311230D-10 0.000000000000D+00
    0.220000000000D+02-0.502187500000D+02 0.485305929226D-08 0.282539280886D+01
   -0.258348882198D-05 0.131971621886D-01 0.552088022232D-05 0.515369722176D+04
    0.259200000000D+06 0.856816768646D-07 0.329607115882D+00-0.135973095894D-06
    0.944335593196D+00 0.261093750000D+03 0.120557969728D+01-0.810855203945D-08
   -0.142863093678D-10 0.100000000000D+01 0.192800000000D+04 0.000000000000D+00
    0.200000000000D+01 0.630000000000D+02-0.651925802231D-08 0.220000000000D+02
    0.256500000000D+06 0.400000000000D+01 0.000000000000D+00 0.000000000000D+00
 5 16 12 21  0  0  0.0-0.709383748472D-04 0.227373675443D-11 0.000000000000D+00
    0.140000000000D+02-0.304062500000D+02 0.477412731570D-08-0.264452077159D+00
   -0.145472586155D-05 0.491493451409D-02 0.102650374174D-04 0.515365473557D+04
    0.259200000000D+06 0.633299350738D-07 0.139226326293D+01 0.260770320892D-07
    0.946179635083D+00 0.171750000000D+03 0.563745030312D+00-0.819105583361D-08
    0.221437798653D-10 0.100000000000D+01 0.192800000000D+04 0.000000000000D+00
    0.200000000000D+01 0.000000000000D+00-0.107102096081D-07 0.140000000000D+02
    0.259200000000D+06 0.000000000000D+00 0.000000000000D+00 0.000000000000D+00
 6 16 12 21  0  0  0.0 0.288614071906D-03 0.500222085975D-11 0.000000000000D+00
    0.180000000000D+02-0.542500000000D+02 0.450875923649D-08-0.280628267634D+01
   -0.273436307907D-05 0.424600555561D-03 0.617653131485D-05 0.515358257294D+04
    0.259200000000D+06-0.130385160446D-07 0.356650063587D+00-0.316649675369D-07
    0.966082598978D+00 0.264843750000D+03-0.146172057695D+01-0.810605193531D-08
   -0.432160858377D-10 0.100000000000D+01 0.192800000000D+04 0.000000000000D+00
    0.200000000000D+01 0.000000000000D+00 0.419095158577D-08 0.180000000000D+02
    0.258270000000D+06 0.400000000000D+01 0.000000000000D+00 0.000000000000D+00
 7 16 12 21  0  0  0.0 0.400250311941D-03-0.352429196937D-11 0.000000000000D+00
    0.750000000000D+02 0.100625000000D+02 0.465805116939D-08 0.244887147257D+01
    0.480562448502D-06 0.100582886953D-01 0.623613595963D-05 0.515361588669D+04
    0.259200000000D+06-0.197440385819D-06-0.276027719139D+01-0.141561031342D-06
    0.964365029286D+00 0.263531250000D+03-0.261365286365D+01-0.806355016494D-08
   -0.167864135072D-09 0.100000000000D+01 0.192800000000D+04 0.000000000000D+00
    0.200000000000D+01 0.000000000000D+00-0.111758708954D-07 0.750000000000D+02
    0.258270000000D+06 0.400000000000D+01 0.000000000000D+00 0.000000000000D+00
 8 16 12 21  0  0  0.0-0.431342050433D-04-0.136424205266D-11 0.000000000000D+00
    0.450000000000D+02 0.131875000000D+02 0.439339720160D-08-0.329619079626D+00
    0.746920704842D-06 0.225837295875D-02 0.660121440887D-05 0.515355953789D+04
    0.259200000000D+06-0.800937414169D-07-0.696595425504D+00-0.242143869400D-07
    0.965436632871D+00 0.257250000000D+03-0.966929695840D+00-0.811640976650D-08
    0.128576788105D-09 0.100000000000D+01 0.192800000000D+04 0.000000000000D+00
    0.200000000000D+01 0.000000000000D+00 0.512227416039D-08 0.450000000000D+02
    0.259200000000D+06 0.000000000000D+00 0.000000000000D+00 0.000000000000D+00
 9 16 12 21  0  0  0.0 0.267601571977D-03 0.738964445190D-11 0.000000000000D+00
    0.790000000000D+02 0.529062500000D+02 0.485305929226D-08-0.829197497667D+00
    0.268034636974D-05 0.827538198791D-03 0.781193375587D-05 0.515372284126D+04
    0.259200000000D+06 0.298023223877D-07 0.244476683604D+01 0.651925802231D-07
    0.954062289735D+00 0.230156250000D+03 0.172330606906D+01-0.816998316973D-08
    0.203579908492D-09 0.100000000000D+01 0.192800000000D+04 0.000000000000D+00
    0.200000000000D+01 0.000000000000D+00 0.139698386192D-08 0.790000000000D+02
    0.258270000000D+06 0.400000000000D+01 0.000000000000D+00 0.000000000000D+00
10 16 12 21  0  0  0.0-0.115821138024D-03 0.454747350886D-12 0.000000000000D+00
    0.210000000000D+02-0.307812500000D+02 0.451697386438D-08 0.105393375694D+01
   -0.156275928020D-05 0.200848537497D-02 0.944547355175D-05 0.515367750931D+04
    0.259200000000D+06-0.353902578354D-07 0.140313554428D+01 0.521540641785D-07
    0.959370998544D+00 0.197187500000D+03-0.294864945458D+01-0.796676041898D-08
    0.357157734196D-11 0.100000000000D+01 0.192800000000D+04 0.000000000000D+00
    0.200000000000D+01 0.000000000000D+00 0.232830643654D-08 0.210000000000D+02
    0.253410000000D+06 0.400000000000D+01 0.000000000000D+00 0.000000000000D+00
11 16 12 21  0  0  0.0-0.671117100865D-03 0.306954461848D-11 0.000000000000D+00
    0.350000000000D+02-0.275312500000D+02 0.589667419158D-08 0.250824213028D+01
   -0.137835741043D-05 0.166845622007D-01 0.397488474846D-05 0.515369072533D+04
    0.259200000000D+06 0.216066837311D-06-0.263584176139D-01-0.465661287308D-07
    0.899328197269D+00 0.265875000000D+03 0.160698673448D+01-0.857928593312D-08
    0.571452374714D-11 0.100000000000D+01 0.192800000000D+04 0.000000000000D+00
    0.200000000000D+01 0.000000000000D+00-0.121071934700D-07 0.350000000000D+02
    0.255540000000D+06 0.400000000000D+01 0.000000000000D+00 0.000000000000D+00
12 16 12 21  0  0  0.0 0.389336142689D-03-0.113686837722D-12 0.000000000000D+00
    0.820000000000D+02-0.137500000000D+01 0.375158484000D-08 0.186072867134D+01
   -0.154599547386D-06 0.617774191778D-02 0.902265310287D-05 0.515361779594D+04
    0.259200000000D+06-0.171363353729D-06-0.167946231182D+01-0.316649675369D-07
    0.989709741223D+00 0.220156250000D+03 0.780174722232D+00-0.774925135885D-08
   -0.161078138122D-09 0.100000000000D+01 0.192800000000D+04 0.000000000000D+00
    0.200000000000D+01 0.000000000000D+00-0.125728547573D-07 0.820000000000D+02
    0.254610000000D+06 0.400000000000D+01 0.000000000000D+00 0.000000000000D+00
14 16 12 21  0  0  0.0-0.504464842379D-04-0.170530256582D-11 0.000000000000D+00
    0.750000000000D+02 0.485312500000D+02 0.458590530708D-08-0.146344867088D+01
    0.270642340183D-05 0.863316666800D-02 0.761076807976D-05 0.515361197472D+04
    0.259200000000D+06 0.115483999252D-06 0.253020133818D+01 0.156462192535D-06
    0.962834754069D+00 0.232750000000D+03-0.194882636904D+01-0.801604818630D-08
    0.153934983438D-09 0.100000000000D+01 0.192800000000D+04 0.000000000000D+00
    0.200000000000D+01 0.000000000000D+00-0.931322574616D-08 0.750000000000D+02
    0.258270000000D+06 0.400000000000D+01 0.000000000000D+00 0.000000000000D+00
15 16 12 21  0  0  0.0-0.338071957231D-03-0.113686837722D-11 0.000000000000D+00
    0.830000000000D+02 0.452500000000D+02 0.534093658189D-08-0.185330811887D+01
    0.206008553505D-05 0.895949022379D-02 0.799447298050D-05 0.515371796799D+04
    0.259200000000D+06 0.104308128357D-06 0.238709179694D+01-0.113621354103D-06
    0.929682683873D+00 0.205156250000D+03 0.550206267694D+00-0.836499136625D-08
    0.321441956386D-09 0.100000000000D+01 0.192800000000D+04 0.000000000000D+00
    0.200000000000D+01 0.000000000000D+00-0.107102096081D-07 0.830000000000D+02
    0.259200000000D+06 0.000000000000D+00 0.000000000000D+00 0.000000000000D+00
16 16 12 21  0  0  0.0 0.201524235308D-04 0.136424205266D-11 0.000000000000D+00
    0.600000000000D+01 0.112500000000D+01 0.382087344043D-08-0.817620511119D-01
    0.391155481338D-07 0.889279483818D-02 0.778399407864D-05 0.515362087440D+04
    0.259200000000D+06 0.670552253723D-07-0.166062772578D+01 0.856816768646D-07
    0.990197264525D+00 0.243500000000D+03 0.381769734836D+00-0.789318592573D-08
   -0.175007289756D-09 0.100000000000D+01 0.192800000000D+04 0.000000000000D+00
    0.200000000000D+01 0.000000000000D+00-0.102445483208D-07 0.600000000000D+01
    0.258270000000D+06 0.400000000000D+01 0.000000000000D+00 0.000000000000D+00
